{
  "type": "FeatureCollection",
  "features": [
    {
      "type": "Feature",
      "properties": {
        "norad_id": 59600,
        "name": "GSAT0227 (GALILEO 30)",
        "group": "gnss",
        "lat": -3.9480178873370875,
        "lon": -70.98280015361841,
        "alt_km": 23219.65084141655,
        "timestamp": "2025-12-13T22:39:29.952792+00:00",
        "meta_object_name": "GSAT0227 (GALILEO 30)",
        "meta_object_id": "2024-079C",
        "meta_epoch": "2025-12-08T22:48:42.234912",
        "meta_mean_motion": 1.70474719,
        "meta_eccentricity": 0.0003262,
        "meta_inclination": 54.9946,
        "meta_ra_of_asc_node": 106.4003,
        "meta_arg_of_pericenter": 114.182,
        "meta_mean_anomaly": 245.816,
        "meta_ephemeris_type": 0,
        "meta_classification_type": "U",
        "meta_norad_cat_id": 59600,
        "meta_element_set_no": 999,
        "meta_rev_at_epoch": 1012,
        "meta_bstar": 0,
        "meta_mean_motion_dot": 9e-08,
        "meta_mean_motion_ddot": 0,
        "tle_line1": "1 59600U 24079C   25342.95048883  .00000009  00000+0  00000+0 0  9990",
        "tle_line2": "2 59600  54.9946 106.4003 0003262 114.1820 245.8160  1.70474719 10123"
      },
      "geometry": {
        "type": "Point",
        "coordinates": [
          -70.98280015361841,
          -3.9480178873370875
        ]
      }
    },
    {
      "type": "Feature",
      "properties": {
        "norad_id": 61182,
        "name": "GSAT0232 (GALILEO 32)",
        "group": "gnss",
        "lat": 15.644458483724819,
        "lon": -122.39282863557524,
        "alt_km": 23226.062654979734,
        "timestamp": "2025-12-13T22:39:29.952803+00:00",
        "meta_object_name": "GSAT0232 (GALILEO 32)",
        "meta_object_id": "2024-167A",
        "meta_epoch": "2025-12-12T10:51:18.741600",
        "meta_mean_motion": 1.70473504,
        "meta_eccentricity": 0.00019431,
        "meta_inclination": 55.2408,
        "meta_ra_of_asc_node": 226.4386,
        "meta_arg_of_pericenter": 211.6313,
        "meta_mean_anomaly": 332.0573,
        "meta_ephemeris_type": 0,
        "meta_classification_type": "U",
        "meta_norad_cat_id": 61182,
        "meta_element_set_no": 999,
        "meta_rev_at_epoch": 769,
        "meta_bstar": 0,
        "meta_mean_motion_dot": 1.6e-07,
        "meta_mean_motion_ddot": 0,
        "tle_line1": "1 61182U 24167A   25346.45230025  .00000016  00000+0  00000+0 0  9994",
        "tle_line2": "2 61182  55.2408 226.4386 0001943 211.6313 332.0573  1.70473504  7695"
      },
      "geometry": {
        "type": "Point",
        "coordinates": [
          -122.39282863557524,
          15.644458483724819
        ]
      }
    },
    {
      "type": "Feature",
      "properties": {
        "norad_id": 61183,
        "name": "GSAT0226 (GALILEO 31)",
        "group": "gnss",
        "lat": 37.733053566036936,
        "lon": 13.940047165740165,
        "alt_km": 23215.286614660024,
        "timestamp": "2025-12-13T22:39:29.952816+00:00",
        "meta_object_name": "GSAT0226 (GALILEO 31)",
        "meta_object_id": "2024-167B",
        "meta_epoch": "2025-12-12T20:26:08.685024",
        "meta_mean_motion": 1.70473602,
        "meta_eccentricity": 8.42e-05,
        "meta_inclination": 55.2391,
        "meta_ra_of_asc_node": 226.433,
        "meta_arg_of_pericenter": 113.0334,
        "meta_mean_anomaly": 68.3038,
        "meta_ephemeris_type": 0,
        "meta_classification_type": "U",
        "meta_norad_cat_id": 61183,
        "meta_element_set_no": 999,
        "meta_rev_at_epoch": 767,
        "meta_bstar": 0,
        "meta_mean_motion_dot": 1.9e-07,
        "meta_mean_motion_ddot": 0,
        "tle_line1": "1 61183U 24167B   25346.85148941  .00000019  00000+0  00000+0 0  9997",
        "tle_line2": "2 61183  55.2391 226.4330 0000842 113.0334  68.3038  1.70473602  7673"
      },
      "geometry": {
        "type": "Point",
        "coordinates": [
          13.940047165740165,
          37.733053566036936
        ]
      }
    },
    {
      "type": "Feature",
      "properties": {
        "norad_id": 61186,
        "name": "BEIDOU-3 M25 (C47)",
        "group": "gnss",
        "lat": -1.8632882854767674,
        "lon": 129.98188962456902,
        "alt_km": 21535.15330030459,
        "timestamp": "2025-12-13T22:39:29.952830+00:00",
        "meta_object_name": "BEIDOU-3 M25 (C47)",
        "meta_object_id": "2024-168B",
        "meta_epoch": "2025-12-12T20:48:06.582240",
        "meta_mean_motion": 1.86230172,
        "meta_eccentricity": 0.00054256,
        "meta_inclination": 54.6417,
        "meta_ra_of_asc_node": 308.715,
        "meta_arg_of_pericenter": 297.6851,
        "meta_mean_anomaly": 242.2861,
        "meta_ephemeris_type": 0,
        "meta_classification_type": "U",
        "meta_norad_cat_id": 61186,
        "meta_element_set_no": 999,
        "meta_rev_at_epoch": 831,
        "meta_bstar": 0,
        "meta_mean_motion_dot": -9.5e-07,
        "meta_mean_motion_ddot": 0,
        "tle_line1": "1 61186U 24168B   25346.86674285 -.00000095  00000+0  00000+0 0  9992",
        "tle_line2": "2 61186  54.6417 308.7150 0005425 297.6851 242.2861  1.86230172  8316"
      },
      "geometry": {
        "type": "Point",
        "coordinates": [
          129.98188962456902,
          -1.8632882854767674
        ]
      }
    },
    {
      "type": "Feature",
      "properties": {
        "norad_id": 61187,
        "name": "BEIDOU-3 M27 (C49)",
        "group": "gnss",
        "lat": -33.62458730382706,
        "lon": -79.52034205331643,
        "alt_km": 21525.98717534828,
        "timestamp": "2025-12-13T22:39:29.952842+00:00",
        "meta_object_name": "BEIDOU-3 M27 (C49)",
        "meta_object_id": "2024-168C",
        "meta_epoch": "2025-12-13T04:47:06.571968",
        "meta_mean_motion": 1.86230336,
        "meta_eccentricity": 0.00023989,
        "meta_inclination": 54.6369,
        "meta_ra_of_asc_node": 308.6872,
        "meta_arg_of_pericenter": 337.1666,
        "meta_mean_anomaly": 200.7639,
        "meta_ephemeris_type": 0,
        "meta_classification_type": "U",
        "meta_norad_cat_id": 61187,
        "meta_element_set_no": 999,
        "meta_rev_at_epoch": 579,
        "meta_bstar": 0,
        "meta_mean_motion_dot": -9.6e-07,
        "meta_mean_motion_ddot": 0,
        "tle_line1": "1 61187U 24168C   25347.19938162 -.00000096  00000+0  00000+0 0  9998",
        "tle_line2": "2 61187  54.6369 308.6872 0002398 337.1666 200.7639  1.86230336  5796"
      },
      "geometry": {
        "type": "Point",
        "coordinates": [
          -79.52034205331643,
          -33.62458730382706
        ]
      }
    },
    {
      "type": "Feature",
      "properties": {
        "norad_id": 62339,
        "name": "GPS BIII-7  (PRN 01)",
        "group": "gnss",
        "lat": 39.04697732518055,
        "lon": 16.431594921229696,
        "alt_km": 20163.979035410135,
        "timestamp": "2025-12-13T22:39:29.952853+00:00",
        "meta_object_name": "GPS BIII-7  (PRN 01)",
        "meta_object_id": "2024-242A",
        "meta_epoch": "2025-12-10T14:03:42.090048",
        "meta_mean_motion": 2.00567746,
        "meta_eccentricity": 0.0012131,
        "meta_inclination": 54.9242,
        "meta_ra_of_asc_node": 341.8267,
        "meta_arg_of_pericenter": 344.331,
        "meta_mean_anomaly": 161.0631,
        "meta_ephemeris_type": 0,
        "meta_classification_type": "U",
        "meta_norad_cat_id": 62339,
        "meta_element_set_no": 999,
        "meta_rev_at_epoch": 747,
        "meta_bstar": 0,
        "meta_mean_motion_dot": -9e-07,
        "meta_mean_motion_ddot": 0,
        "tle_line1": "1 62339U 24242A   25344.58590382 -.00000090  00000+0  00000+0 0  9993",
        "tle_line2": "2 62339  54.9242 341.8267 0012131 344.3310 161.0631  2.00567746  7471"
      },
      "geometry": {
        "type": "Point",
        "coordinates": [
          16.431594921229696,
          39.04697732518055
        ]
      }
    },
    {
      "type": "Feature",
      "properties": {
        "norad_id": 62850,
        "name": "NVS-02 (IRNSS-1K)",
        "group": "gnss",
        "lat": 20.33314095184966,
        "lon": 72.0780157788058,
        "alt_km": 3566.1866013727695,
        "timestamp": "2025-12-13T22:39:29.952873+00:00",
        "meta_object_name": "NVS-02 (IRNSS-1K)",
        "meta_object_id": "2025-020A",
        "meta_epoch": "2025-12-13T00:11:02.008032",
        "meta_mean_motion": 2.1759453,
        "meta_eccentricity": 0.7347833,
        "meta_inclination": 20.9824,
        "meta_ra_of_asc_node": 327.5629,
        "meta_arg_of_pericenter": 26.4073,
        "meta_mean_anomaly": 357.2146,
        "meta_ephemeris_type": 0,
        "meta_classification_type": "U",
        "meta_norad_cat_id": 62850,
        "meta_element_set_no": 999,
        "meta_rev_at_epoch": 692,
        "meta_bstar": 0.00035807223,
        "meta_mean_motion_dot": 4.1e-06,
        "meta_mean_motion_ddot": 0,
        "tle_line1": "1 62850U 25020A   25347.00766213  .00000410  00000+0  35807-3 0  9996",
        "tle_line2": "2 62850  20.9824 327.5629 7347833  26.4073 357.2146  2.17594530  6920"
      },
      "geometry": {
        "type": "Point",
        "coordinates": [
          72.0780157788058,
          20.33314095184966
        ]
      }
    }
  ]
}